{"type": "FeatureCollection", "features": [ {"type": "Feature", "properties": {"norad_id": 37420, "name": "FENGYUN 1C DEB", "group": "fengyun-1c-debris", "lat": -36.97635793341225, "lon": -6.600283823140884, "alt_km": 887.2882359774148, "timestamp": "2025-12-22T23:36:21.002767+00:00", "meta": {"OBJECT_NAME": "FENGYUN 1C DEB", "OBJECT_ID": "1999-025EGN", "EPOCH": "2025-12-20T18:36:12.337056", "MEAN_MOTION": 13.99759458, "ECCENTRICITY": 0.00709493, "INCLINATION": 98.8637, "RA_OF_ASC_NODE": 344.5139, "ARG_OF_PERICENTER": 253.6303, "MEAN_ANOMALY": 105.7053, "EPHEMERIS_TYPE": 0, "CLASSIFICATION_TYPE": "U", "NORAD_CAT_ID": 37420, "ELEMENT_SET_NO": 999, "REV_AT_EPOCH": 59877, "BSTAR": 0.00033965148, "MEAN_MOTION_DOT": 4.65e-06, "MEAN_MOTION_DDOT": 0}, "tle": {"line1": "1 37420U 99025EGN 25354.77514279  .00000465  00000+0  33965-3 0  9995", "line2": "2 37420  98.8637 344.5139 0070949 253.6303 105.7053 13.99759458598776"}}, "geometry": {"type": "Point", "coordinates": [-6.600283823140884, -36.97635793341225]}}, {"type": "Feature", "properties": {"norad_id": 37421, "name": "FENGYUN 1C DEB", "group": "fengyun-1c-debris", "lat": -78.97879226849763, "lon": 3.959536572222126, "alt_km": 1355.3242088670368, "timestamp": "2025-12-22T23:36:21.002777+00:00", "meta": {"OBJECT_NAME": "FENGYUN 1C DEB", "OBJECT_ID": "1999-025EGP", "EPOCH": "2025-12-17T07:53:38.656896", "MEAN_MOTION": 13.40536382, "ECCENTRICITY": 0.04092708, "INCLINATION": 98.888, "RA_OF_ASC_NODE": 305.5227, "ARG_OF_PERICENTER": 73.9716, "MEAN_ANOMALY": 290.6084, "EPHEMERIS_TYPE": 0, "CLASSIFICATION_TYPE": "U", "NORAD_CAT_ID": 37421, "ELEMENT_SET_NO": 999, "REV_AT_EPOCH": 61007, "BSTAR": 0.00075435568, "MEAN_MOTION_DOT": 6.43e-06, "MEAN_MOTION_DDOT": 0}, "tle": {"line1": "1 37421U 99025EGP 25351.32891964  .00000643  00000+0  75436-3 0  9990", "line2": "2 37421  98.8880 305.5227 0409270  73.9716 290.6084 13.40536382610077"}}, "geometry": {"type": "Point", "coordinates": [3.959536572222126, -78.97879226849763]}}, {"type": "Feature", "properties": {"norad_id": 37423, "name": "FENGYUN 1C DEB", "group": "fengyun-1c-debris", "lat": -79.22909337095287, "lon": 101.32517086582114, "alt_km": 904.1898088963271, "timestamp": "2025-12-22T23:36:21.002787+00:00", "meta": {"OBJECT_NAME": "FENGYUN 1C DEB", "OBJECT_ID": "1999-025EGR", "EPOCH": "2025-12-19T20:56:31.693920", "MEAN_MOTION": 14.07571536, "ECCENTRICITY": 0.0049402, "INCLINATION": 98.7853, "RA_OF_ASC_NODE": 43.9189, "ARG_OF_PERICENTER": 140.2024, "MEAN_ANOMALY": 220.2786, "EPHEMERIS_TYPE": 0, "CLASSIFICATION_TYPE": "U", "NORAD_CAT_ID": 37423, "ELEMENT_SET_NO": 999, "REV_AT_EPOCH": 63710, "BSTAR": 0.00067171, "MEAN_MOTION_DOT": 1.103e-05, "MEAN_MOTION_DDOT": 0}, "tle": {"line1": "1 37423U 99025EGR 25353.87258905  .00001103  00000+0  67171-3 0  9995", "line2": "2 37423  98.7853  43.9189 0049402 140.2024 220.2786 14.07571536637100"}}, "geometry": {"type": "Point", "coordinates": [101.32517086582114, -79.22909337095287]}}, {"type": "Feature", "properties": {"norad_id": 37424, "name": "FENGYUN 1C DEB", "group": "fengyun-1c-debris", "lat": 15.005479593078746, "lon": -54.50230106655096, "alt_km": 821.7730335545739, "timestamp": "2025-12-22T23:36:21.002797+00:00", "meta": {"OBJECT_NAME": "FENGYUN 1C DEB", "OBJECT_ID": "1999-025EGS", "EPOCH": "2025-12-21T14:37:45.437952", "MEAN_MOTION": 14.17892468, "ECCENTRICITY": 0.021449, "INCLINATION": 97.1981, "RA_OF_ASC_NODE": 122.4405, "ARG_OF_PERICENTER": 255.8264, "MEAN_ANOMALY": 101.9002, "EPHEMERIS_TYPE": 0, "CLASSIFICATION_TYPE": "U", "NORAD_CAT_ID": 37424, "ELEMENT_SET_NO": 999, "REV_AT_EPOCH": 68699, "BSTAR": 0.00090223, "MEAN_MOTION_DOT": 2.279e-05, "MEAN_MOTION_DDOT": 0}, "tle": {"line1": "1 37424U 99025EGS 25355.60955368  .00002279  00000+0  90223-3 0  9995", "line2": "2 37424  97.1981 122.4405 0214490 255.8264 101.9002 14.17892468686998"}}, "geometry": {"type": "Point", "coordinates": [-54.50230106655096, 15.005479593078746]}}, {"type": "Feature", "properties": {"norad_id": 37427, "name": "FENGYUN 1C DEB", "group": "fengyun-1c-debris", "lat": -71.9918655317059, "lon": 167.7525063229174, "alt_km": 458.3761776681413, "timestamp": "2025-12-22T23:36:21.002807+00:00", "meta": {"OBJECT_NAME": "FENGYUN 1C DEB", "OBJECT_ID": "1999-025EGV", "EPOCH": "2025-12-21T15:52:18.895584", "MEAN_MOTION": 14.98171983, "ECCENTRICITY": 0.0187664, "INCLINATION": 98.6212, "RA_OF_ASC_NODE": 138.4708, "ARG_OF_PERICENTER": 268.3743, "MEAN_ANOMALY": 89.5974, "EPHEMERIS_TYPE": 0, "CLASSIFICATION_TYPE": "U", "NORAD_CAT_ID": 37427, "ELEMENT_SET_NO": 999, "REV_AT_EPOCH": 60456, "BSTAR": 0.0003973, "MEAN_MOTION_DOT": 6.707e-05, "MEAN_MOTION_DDOT": 0}, "tle": {"line1": "1 37427U 99025EGV 25355.66132981  .00006707  00000+0  39730-3 0  9998", "line2": "2 37427  98.6212 138.4708 0187664 268.3743  89.5974 14.98171983604563"}}, "geometry": {"type": "Point", "coordinates": [167.7525063229174, -71.9918655317059]}}, {"type": "Feature", "properties": {"norad_id": 37428, "name": "FENGYUN 1C DEB", "group": "fengyun-1c-debris", "lat": -54.60587774206743, "lon": -130.43184811156243, "alt_km": 804.9967875129496, "timestamp": "2025-12-22T23:36:21.002818+00:00", "meta": {"OBJECT_NAME": "FENGYUN 1C DEB", "OBJECT_ID": "1999-025EGW", "EPOCH": "2025-12-14T08:18:44.705664", "MEAN_MOTION": 14.34657068, "ECCENTRICITY": 0.0056813, "INCLINATION": 97.722, "RA_OF_ASC_NODE": 210.8336, "ARG_OF_PERICENTER": 94.0763, "MEAN_ANOMALY": 266.6921, "EPHEMERIS_TYPE": 0, "CLASSIFICATION_TYPE": "U", "NORAD_CAT_ID": 37428, "ELEMENT_SET_NO": 999, "REV_AT_EPOCH": 63459, "BSTAR": 0.0018586443, "MEAN_MOTION_DOT": 5.32e-05, "MEAN_MOTION_DDOT": 0}, "tle": {"line1": "1 37428U 99025EGW 25348.34635076  .00005320  00000+0  18586-2 0  9994", "line2": "2 37428  97.7220 210.8336 0056813  94.0763 266.6921 14.34657068634591"}}, "geometry": {"type": "Point", "coordinates": [-130.43184811156243, -54.60587774206743]}}, {"type": "Feature", "properties": {"norad_id": 37430, "name": "FENGYUN 1C DEB", "group": "fengyun-1c-debris", "lat": 6.574962490893763, "lon": -107.83741367837644, "alt_km": 805.4087450673587, "timestamp": "2025-12-22T23:36:21.002828+00:00", "meta": {"OBJECT_NAME": "FENGYUN 1C DEB", "OBJECT_ID": "1999-025EGY", "EPOCH": "2025-12-05T03:58:16.719456", "MEAN_MOTION": 14.28846273, "ECCENTRICITY": 0.001883, "INCLINATION": 98.7668, "RA_OF_ASC_NODE": 53.2332, "ARG_OF_PERICENTER": 93.5332, "MEAN_ANOMALY": 266.8003, "EPHEMERIS_TYPE": 0, "CLASSIFICATION_TYPE": "U", "NORAD_CAT_ID": 37430, "ELEMENT_SET_NO": 999, "REV_AT_EPOCH": 61593, "BSTAR": 0.0038447795, "MEAN_MOTION_DOT": 9.683e-05, "MEAN_MOTION_DDOT": 0}, "tle": {"line1": "1 37430U 99025EGY 25339.16547129  .00009683  00000+0  38448-2 0  9993", "line2": "2 37430  98.7668  53.2332 0018830  93.5332 266.8003 14.28846273615930"}}, "geometry": {"type": "Point", "coordinates": [-107.83741367837644, 6.574962490893763]}}, {"type": "Feature", "properties": {"norad_id": 37432, "name": "FENGYUN 1C DEB", "group": "fengyun-1c-debris", "lat": 64.00938185081479, "lon": -7.142966040709655, "alt_km": 834.5803653129497, "timestamp": "2025-12-22T23:36:21.002837+00:00", "meta": {"OBJECT_NAME": "FENGYUN 1C DEB", "OBJECT_ID": "1999-025EHA", "EPOCH": "2025-12-18T06:57:07.635744", "MEAN_MOTION": 14.53484478, "ECCENTRICITY": 0.01820098, "INCLINATION": 98.1832, "RA_OF_ASC_NODE": 5.4367, "ARG_OF_PERICENTER": 270.6812, "MEAN_ANOMALY": 87.3534, "EPHEMERIS_TYPE": 0, "CLASSIFICATION_TYPE": "U", "NORAD_CAT_ID": 37432, "ELEMENT_SET_NO": 999, "REV_AT_EPOCH": 8457, "BSTAR": 0.00071615853, "MEAN_MOTION_DOT": 3.664e-05, "MEAN_MOTION_DDOT": 0}, "tle": {"line1": "1 37432U 99025EHA 25352.28967171  .00003664  00000+0  71616-3 0  9994", "line2": "2 37432  98.1832   5.4367 0182009 270.6812  87.3534 14.53484478 84575"}}, "geometry": {"type": "Point", "coordinates": [-7.142966040709655, 64.00938185081479]}}, {"type": "Feature", "properties": {"norad_id": 37435, "name": "FENGYUN 1C DEB", "group": "fengyun-1c-debris", "lat": -80.16772701994743, "lon": 94.52713915473524, "alt_km": 814.3930686856083, "timestamp": "2025-12-22T23:36:21.002847+00:00", "meta": {"OBJECT_NAME": "FENGYUN 1C DEB", "OBJECT_ID": "1999-025EHD", "EPOCH": "2025-12-13T08:42:56.940192", "MEAN_MOTION": 14.22368341, "ECCENTRICITY": 0.00403043, "INCLINATION": 98.6487, "RA_OF_ASC_NODE": 23.6617, "ARG_OF_PERICENTER": 12.4728, "MEAN_ANOMALY": 347.7438, "EPHEMERIS_TYPE": 0, "CLASSIFICATION_TYPE": "U", "NORAD_CAT_ID": 37435, "ELEMENT_SET_NO": 999, "REV_AT_EPOCH": 88948, "BSTAR": 0.0015840008, "MEAN_MOTION_DOT": 3.512e-05, "MEAN_MOTION_DDOT": 0}, "tle": {"line1": "1 37435U 99025EHD 25347.36315903  .00003512  00000+0  15840-2 0  9998", "line2": "2 37435  98.6487  23.6617 0040304  12.4728 347.7438 14.22368341889483"}}, "geometry": {"type": "Point", "coordinates": [94.52713915473524, -80.16772701994743]}}, {"type": "Feature", "properties": {"norad_id": 37436, "name": "FENGYUN 1C DEB", "group": "fengyun-1c-debris", "lat": 48.05248790444733, "lon": -118.5734273357456, "alt_km": 824.9325382054885, "timestamp": "2025-12-22T23:36:21.002881+00:00", "meta": {"OBJECT_NAME": "FENGYUN 1C DEB", "OBJECT_ID": "1999-025EHE", "EPOCH": "2025-12-21T21:22:33.469824", "MEAN_MOTION": 14.06364204, "ECCENTRICITY": 0.00598101, "INCLINATION": 98.9358, "RA_OF_ASC_NODE": 50.2657, "ARG_OF_PERICENTER": 122.9047, "MEAN_ANOMALY": 237.7895, "EPHEMERIS_TYPE": 0, "CLASSIFICATION_TYPE": "U", "NORAD_CAT_ID": 37436, "ELEMENT_SET_NO": 999, "REV_AT_EPOCH": 64127, "BSTAR": 0.00050125078, "MEAN_MOTION_DOT": 7.97e-06, "MEAN_MOTION_DDOT": 0}, "tle": {"line1": "1 37436U 99025EHE 25355.89066516  .00000797  00000+0  50125-3 0  9997", "line2": "2 37436  98.9358  50.2657 0059810 122.9047 237.7895 14.06364204641271"}}, "geometry": {"type": "Point", "coordinates": [-118.5734273357456, 48.05248790444733]}}]}